[{"OBJECT_NAME":"STARLINK-5285","OBJECT_ID":"2023-010AD","EPOCH":"2026-03-09T21:36:57.639168","MEAN_MOTION":14.98339026,"ECCENTRICITY":0.00018655,"INCLINATION":70.0037,"RA_OF_ASC_NODE":23.8112,"ARG_OF_PERICENTER":262.0351,"MEAN_ANOMALY":98.0597,"EPHEMERIS_TYPE":0,"CLASSIFICATION_TYPE":"U","NORAD_CAT_ID":55296,"ELEMENT_SET_NO":999,"REV_AT_EPOCH":17418,"BSTAR":-5.6290354e-5,"MEAN_MOTION_DOT":-7.64e-6,"MEAN_MOTION_DDOT":0},{"OBJECT_NAME":"TOMORROW-S7","OBJECT_ID":"2025-081B","EPOCH":"2026-03-09T15:35:01.135680","MEAN_MOTION":14.99242141,"ECCENTRICITY":4.629e-5,"INCLINATION":45.3909,"RA_OF_ASC_NODE":132.557,"ARG_OF_PERICENTER":121.9907,"MEAN_ANOMALY":238.1016,"EPHEMERIS_TYPE":0,"CLASSIFICATION_TYPE":"U","NORAD_CAT_ID":63631,"ELEMENT_SET_NO":999,"REV_AT_EPOCH":4823,"BSTAR":0.00019092565,"MEAN_MOTION_DOT":2.135e-5,"MEAN_MOTION_DDOT":0}]
